CONSTELLATION016-07
1 81659U 26180YX  26036.68528935  .00000000  00000+0  00000-0 0  9998
2 81659  88.0000 245.4545 0000000   0.0000 261.8182 15.05490646    15
CONSTELLATION016-08
1 81660U 24613RU  26036.68528935  .00000000  00000+0  00000-0 0  9999
2 81660  88.0000 245.4545 0000000   0.0000 291.8182 15.05490646    10
CONSTELLATION016-09
1 81661U 24789RD  26036.68528935  .00000000  00000+0  00000-0 0  9994
2 81661  88.0000 245.4545 0000000   0.0000 321.8182 15.05490646    15
CONSTELLATION016-10
1 81662U 24148WG  26036.68528935  .00000000  00000+0  00000-0 0  9994
2 81662  88.0000 245.4545 0000000   0.0000 351.8182 15.05490646    19
CONSTELLATION016-11
1 81663U 22573UP  26036.68528935  .00000000  00000+0  00000-0 0  9995
2 81663  88.0000 245.4545 0000000   0.0000  21.8182 15.05490646    14
CONSTELLATION016-12
1 81664U 23785ZG  26036.68528935  .00000000  00000+0  00000-0 0  9992
2 81664  88.0000 245.4545 0000000   0.0000  51.8182 15.05490646    18
CONSTELLATION017-01
1 81665U 25350MZ  26036.68528935  .00000000  00000+0  00000-0 0  9993
2 81665  88.0000 261.8182 0000000   0.0000  87.2727 15.05490646    16
CONSTELLATION017-02
1 81666U 25773UG  26036.68528935  .00000000  00000+0  00000-0 0  9993
2 81666  88.0000 261.8182 0000000   0.0000 117.2727 15.05490646    11
CONSTELLATION017-03
1 81667U 25410SW  26036.68528935  .00000000  00000+0  00000-0 0  9992
2 81667  88.0000 261.8182 0000000   0.0000 147.2727 15.05490646    15
CONSTELLATION017-04
1 81668U 25293CL  26036.68528935  .00000000  00000+0  00000-0 0  9992
2 81668  88.0000 261.8182 0000000   0.0000 177.2727 15.05490646    19
CONSTELLATION017-05
1 81669U 24948PF  26036.68528935  .00000000  00000+0  00000-0 0  9999
2 81669  88.0000 261.8182 0000000   0.0000 207.2727 15.05490646    14
CONSTELLATION017-06
1 81670U 24378ER  26036.68528935  .00000000  00000+0  00000-0 0  9998
2 81670  88.0000 261.8182 0000000   0.0000 237.2727 15.05490646    19
CONSTELLATION017-07
1 81671U 24530YE  26036.68528935  .00000000  00000+0  00000-0 0  9999
2 81671  88.0000 261.8182 0000000   0.0000 267.2727 15.05490646    13
CONSTELLATION017-08
1 81672U 25842YA  26036.68528935  .00000000  00000+0  00000-0 0  9997
2 81672  88.0000 261.8182 0000000   0.0000 297.2727 15.05490646    17
CONSTELLATION017-09
1 81673U 26978KV  26036.68528935  .00000000  00000+0  00000-0 0  9999
2 81673  88.0000 261.8182 0000000   0.0000 327.2727 15.05490646    12
CONSTELLATION017-10
1 81674U 23422VJ  26036.68528935  .00000000  00000+0  00000-0 0  9991
2 81674  88.0000 261.8182 0000000   0.0000 357.2727 15.05490646    16
CONSTELLATION017-11
1 81675U 24503TB  26036.68528935  .00000000  00000+0  00000-0 0  9993
2 81675  88.0000 261.8182 0000000   0.0000  27.2727 15.05490646    11
CONSTELLATION017-12
1 81676U 25099EM  26036.68528935  .00000000  00000+0  00000-0 0  9995
2 81676  88.0000 261.8182 0000000   0.0000  57.2727 15.05490646    15
CONSTELLATION018-01
1 81677U 24317ST  26036.68528935  .00000000  00000+0  00000-0 0  9998
2 81677  88.0000 278.1818 0000000   0.0000  92.7273 15.05490646    13
CONSTELLATION018-02
1 81678U 22582XL  26036.68528935  .00000000  00000+0  00000-0 0  9991
2 81678  88.0000 278.1818 0000000   0.0000 122.7273 15.05490646    18
CONSTELLATION018-03
1 81679U 23163RF  26036.68528935  .00000000  00000+0  00000-0 0  9998
2 81679  88.0000 278.1818 0000000   0.0000 152.7273 15.05490646    12
CONSTELLATION018-04
1 81680U 22784DS  26036.68528935  .00000000  00000+0  00000-0 0  9998
2 81680  88.0000 278.1818 0000000   0.0000 182.7273 15.05490646    17
CONSTELLATION018-05
1 81681U 26110UF  26036.68528935  .00000000  00000+0  00000-0 0  9996
2 81681  88.0000 278.1818 0000000   0.0000 212.7273 15.05490646    12
CONSTELLATION018-06
1 81682U 26421HD  26036.68528935  .00000000  00000+0  00000-0 0  9992
2 81682  88.0000 278.1818 0000000   0.0000 242.7273 15.05490646    16
CONSTELLATION018-07
1 81683U 22693OW  26036.68528935  .00000000  00000+0  00000-0 0  9990
2 81683  88.0000 278.1818 0000000   0.0000 272.7273 15.05490646    10
CONSTELLATION018-08
1 81684U 23158N   26036.68528935  .00000000  00000+0  00000-0 0  9998
2 81684  88.0000 278.1818 0000000   0.0000 302.7273 15.05490646    15
CONSTELLATION018-09
1 81685U 23530IM  26036.68528935  .00000000  00000+0  00000-0 0  9993
2 81685  88.0000 278.1818 0000000   0.0000 332.7273 15.05490646    19
CONSTELLATION018-10
1 81686U 22078WM  26036.68528935  .00000000  00000+0  00000-0 0  9990
2 81686  88.0000 278.1818 0000000   0.0000   2.7273 15.05490646    14
CONSTELLATION018-11
1 81687U 26004XV  26036.68528935  .00000000  00000+0  00000-0 0  9994
2 81687  88.0000 278.1818 0000000   0.0000  32.7273 15.05490646    18
CONSTELLATION018-12
1 81688U 23658YO  26036.68528935  .00000000  00000+0  00000-0 0  9997
2 81688  88.0000 278.1818 0000000   0.0000  62.7273 15.05490646    12
CONSTELLATION019-01
1 81689U 26754DX  26036.68528935  .00000000  00000+0  00000-0 0  9998
2 81689  88.0000 294.5455 0000000   0.0000  98.1818 15.05490646    10
CONSTELLATION019-02
1 81690U 23100QQ  26036.68528935  .00000000  00000+0  00000-0 0  9992
2 81690  88.0000 294.5455 0000000   0.0000 128.1818 15.05490646    16
CONSTELLATION019-03
1 81691U 25186MP  26036.68528935  .00000000  00000+0  00000-0 0  9999
2 81691  88.0000 294.5455 0000000   0.0000 158.1818 15.05490646    10
CONSTELLATION019-04
1 81692U 25576ZE  26036.68528935  .00000000  00000+0  00000-0 0  9993
2 81692  88.0000 294.5455 0000000   0.0000 188.1818 15.05490646    14
CONSTELLATION019-05
1 81693U 22864RY  26036.68528935  .00000000  00000+0  00000-0 0  9991
2 81693  88.0000 294.5455 0000000   0.0000 218.1818 15.05490646    19
CONSTELLATION019-06
1 81694U 25648YZ  26036.68528935  .00000000  00000+0  00000-0 0  9995
2 81694  88.0000 294.5455 0000000   0.0000 248.1818 15.05490646    13
CONSTELLATION019-07
1 81695U 23723OS  26036.68528935  .00000000  00000+0  00000-0 0  9998
2 81695  88.0000 294.5455 0000000   0.0000 278.1818 15.05490646    17
CONSTELLATION019-08
1 81696U 25368TU  26036.68528935  .00000000  00000+0  00000-0 0  9996
2 81696  88.0000 294.5455 0000000   0.0000 308.1818 15.05490646    12
CONSTELLATION019-09
1 81697U 23177VI  26036.68528935  .00000000  00000+0  00000-0 0  9993
2 81697  88.0000 294.5455 0000000   0.0000 338.1818 15.05490646    16
CONSTELLATION019-10
1 81698U 25672PK  26036.68528935  .00000000  00000+0  00000-0 0  9996
2 81698  88.0000 294.5455 0000000   0.0000   8.1818 15.05490646    11
CONSTELLATION019-11
1 81699U 23704OG  26036.68528935  .00000000  00000+0  00000-0 0  9991
2 81699  88.0000 294.5455 0000000   0.0000  38.1818 15.05490646    15
CONSTELLATION019-12
1 81700U 24435XF  26036.68528935  .00000000  00000+0  00000-0 0  9996
2 81700  88.0000 294.5455 0000000   0.0000  68.1818 15.05490646    11
CONSTELLATION020-01
1 81701U 23196R   26036.68528935  .00000000  00000+0  00000-0 0  9990
2 81701  88.0000 310.9091 0000000   0.0000 103.6364 15.05490646    12
CONSTELLATION020-02
1 81702U 23756EU  26036.68528935  .00000000  00000+0  00000-0 0  9993
2 81702  88.0000 310.9091 0000000   0.0000 133.6364 15.05490646    16
CONSTELLATION020-03
1 81703U 24170CE  26036.68528935  .00000000  00000+0  00000-0 0  9995
2 81703  88.0000 310.9091 0000000   0.0000 163.6364 15.05490646    10
CONSTELLATION020-04
1 81704U 26001SW  26036.68528935  .00000000  00000+0  00000-0 0  9991
2 81704  88.0000 310.9091 0000000   0.0000 193.6364 15.05490646    14
CONSTELLATION020-05
1 81705U 26484S   26036.68528935  .00000000  00000+0  00000-0 0  9997
2 81705  88.0000 310.9091 0000000   0.0000 223.6364 15.05490646    19
CONSTELLATION020-06
1 81706U 23552PB  26036.68528935  .00000000  00000+0  00000-0 0  9991
2 81706  88.0000 310.9091 0000000   0.0000 253.6364 15.05490646    13
CONSTELLATION020-07
1 81707U 25234TE  26036.68528935  .00000000  00000+0  00000-0 0  9991
2 81707  88.0000 310.9091 0000000   0.0000 283.6364 15.05490646    17
CONSTELLATION020-08
1 81708U 26561XQ  26036.68528935  .00000000  00000+0  00000-0 0  9996
2 81708  88.0000 310.9091 0000000   0.0000 313.6364 15.05490646    12
CONSTELLATION020-09
1 81709U 23869ZB  26036.68528935  .00000000  00000+0  00000-0 0  9995
2 81709  88.0000 310.9091 0000000   0.0000 343.6364 15.05490646    16
CONSTELLATION020-10
1 81710U 25233UY  26036.68528935  .00000000  00000+0  00000-0 0  9994
2 81710  88.0000 310.9091 0000000   0.0000  13.6364 15.05490646    12
CONSTELLATION020-11
1 81711U 26793TP  26036.68528935  .00000000  00000+0  00000-0 0  9997
2 81711  88.0000 310.9091 0000000   0.0000  43.6364 15.05490646    16
CONSTELLATION020-12
1 81712U 24924ZE  26036.68528935  .00000000  00000+0  00000-0 0  9992
2 81712  88.0000 310.9091 0000000   0.0000  73.6364 15.05490646    10
CONSTELLATION021-01
1 81713U 25276OZ  26036.68528935  .00000000  00000+0  00000-0 0  9994
2 81713  88.0000 327.2727 0000000   0.0000 109.0909 15.05490646    17
CONSTELLATION021-02
1 81714U 26330RA  26036.68528935  .00000000  00000+0  00000-0 0  9997
2 81714  88.0000 327.2727 0000000   0.0000 139.0909 15.05490646    11
CONSTELLATION021-03
1 81715U 25839LD  26036.68528935  .00000000  00000+0  00000-0 0  9991
2 81715  88.0000 327.2727 0000000   0.0000 169.0909 15.05490646    15
CONSTELLATION021-04
1 81716U 26429NU  26036.68528935  .00000000  00000+0  00000-0 0  9998
2 81716  88.0000 327.2727 0000000   0.0000 199.0909 15.05490646    19
CONSTELLATION021-05
1 81717U 23839QW  26036.68528935  .00000000  00000+0  00000-0 0  9991
2 81717  88.0000 327.2727 0000000   0.0000 229.0909 15.05490646    14
CONSTELLATION021-06
1 81718U 22144PT  26036.68528935  .00000000  00000+0  00000-0 0  9990
2 81718  88.0000 327.2727 0000000   0.0000 259.0909 15.05490646    18
CONSTELLATION021-07
1 81719U 26468FO  26036.68528935  .00000000  00000+0  00000-0 0  9994
2 81719  88.0000 327.2727 0000000   0.0000 289.0909 15.05490646    12
CONSTELLATION021-08
1 81720U 26831XZ  26036.68528935  .00000000  00000+0  00000-0 0  9990
2 81720  88.0000 327.2727 0000000   0.0000 319.0909 15.05490646    18
